[{"OBJECT_NAME":"SVYATOBOR 1 (RS60S)","OBJECT_ID":"2023-091X","EPOCH":"2026-03-09T23:06:11.081664","MEAN_MOTION":15.2482043,"ECCENTRICITY":0.00111996,"INCLINATION":97.5206,"RA_OF_ASC_NODE":132.3062,"ARG_OF_PERICENTER":84.4206,"MEAN_ANOMALY":275.8308,"EPHEMERIS_TYPE":0,"CLASSIFICATION_TYPE":"U","NORAD_CAT_ID":57187,"ELEMENT_SET_NO":999,"REV_AT_EPOCH":14918,"BSTAR":0.00046454276,"MEAN_MOTION_DOT":0.00011484,"MEAN_MOTION_DDOT":0},{"OBJECT_NAME":"STARLINK-36141","OBJECT_ID":"2025-294AD","EPOCH":"2026-03-09T23:11:36.115872","MEAN_MOTION":15.27597691,"ECCENTRICITY":0.00014316,"INCLINATION":43.0074,"RA_OF_ASC_NODE":36.3312,"ARG_OF_PERICENTER":240.6042,"MEAN_ANOMALY":119.4667,"EPHEMERIS_TYPE":0,"CLASSIFICATION_TYPE":"U","NORAD_CAT_ID":67057,"ELEMENT_SET_NO":999,"REV_AT_EPOCH":1484,"BSTAR":0.0010377835,"MEAN_MOTION_DOT":0.00028421,"MEAN_MOTION_DDOT":0}]
